1998-067XK              
1 65731U 98067XK  25276.60774234  .00079667  00000+0  12307-2 0  9996
2 65731  51.6319 129.4721 0000793 233.5229 126.5689 15.53402939  2202
RSP-03                  
1 65732U 98067XL  25276.60680071  .00092648  00000+0  14139-2 0  9991
2 65732  51.6317 129.4655 0000862 241.0067 119.0837 15.53669384  2210
1998-067XM              
1 65733U 98067XM  25276.60501337  .00108280  00000+0  16223-2 0  9995
2 65733  51.6318 129.4546 0002770 102.0016 258.1285 15.54099025  2213
